[{"OBJECT_NAME":"STARLINK-30558","OBJECT_ID":"2023-158K","EPOCH":"2026-03-09T22:18:10.395936","MEAN_MOTION":15.27260686,"ECCENTRICITY":0.00012044,"INCLINATION":43.0041,"RA_OF_ASC_NODE":25.9333,"ARG_OF_PERICENTER":261.9473,"MEAN_ANOMALY":98.1242,"EPHEMERIS_TYPE":0,"CLASSIFICATION_TYPE":"U","NORAD_CAT_ID":58060,"ELEMENT_SET_NO":999,"REV_AT_EPOCH":13360,"BSTAR":0.0022219006,"MEAN_MOTION_DOT":0.00060789,"MEAN_MOTION_DDOT":0},{"OBJECT_NAME":"CZ-6A DEB","OBJECT_ID":"2024-140RA","EPOCH":"2026-03-09T01:51:18.259488","MEAN_MOTION":15.31763252,"ECCENTRICITY":0.00411794,"INCLINATION":89.1856,"RA_OF_ASC_NODE":296.0787,"ARG_OF_PERICENTER":96.6516,"MEAN_ANOMALY":263.9425,"EPHEMERIS_TYPE":0,"CLASSIFICATION_TYPE":"U","NORAD_CAT_ID":61156,"ELEMENT_SET_NO":999,"REV_AT_EPOCH":8391,"BSTAR":0.0079173326,"MEAN_MOTION_DOT":0.00256788,"MEAN_MOTION_DDOT":0}]
